{"type": "FeatureCollection", "features": [ {"type": "Feature", "properties": {"norad_id": 34823, "name": "COSMOS 2251 DEB", "group": "cosmos-2251-debris", "lat": -58.81062422043449, "lon": -65.60287225040102, "alt_km": 684.4203888988895, "timestamp": "2025-12-21T05:44:51.982639+00:00", "meta": {"OBJECT_NAME": "COSMOS 2251 DEB", "OBJECT_ID": "1993-036ABN", "EPOCH": "2025-12-20T12:08:33.613440", "MEAN_MOTION": 14.5497594, "ECCENTRICITY": 0.01541862, "INCLINATION": 74.0426, "RA_OF_ASC_NODE": 87.5785, "ARG_OF_PERICENTER": 170.4185, "MEAN_ANOMALY": 189.9981, "EPHEMERIS_TYPE": 0, "CLASSIFICATION_TYPE": "U", "NORAD_CAT_ID": 34823, "ELEMENT_SET_NO": 999, "REV_AT_EPOCH": 88494, "BSTAR": 0.00040573854, "MEAN_MOTION_DOT": 2.017e-05, "MEAN_MOTION_DDOT": 0}, "tle": {"line1": "1 34823U 93036ABN 25354.50594460  .00002017  00000+0  40574-3 0  9995", "line2": "2 34823  74.0426  87.5785 0154186 170.4185 189.9981 14.54975940884942"}}, "geometry": {"type": "Point", "coordinates": [-65.60287225040102, -58.81062422043449]}}, {"type": "Feature", "properties": {"norad_id": 34845, "name": "COSMOS 2251 DEB", "group": "cosmos-2251-debris", "lat": -63.54727572887337, "lon": 97.33234932632239, "alt_km": 729.9207518052808, "timestamp": "2025-12-21T05:44:51.982649+00:00", "meta": {"OBJECT_NAME": "COSMOS 2251 DEB", "OBJECT_ID": "1993-036ABP", "EPOCH": "2025-12-19T17:31:51.884832", "MEAN_MOTION": 14.45872035, "ECCENTRICITY": 0.00225932, "INCLINATION": 74.0244, "RA_OF_ASC_NODE": 135.3011, "ARG_OF_PERICENTER": 295.1391, "MEAN_ANOMALY": 64.7423, "EPHEMERIS_TYPE": 0, "CLASSIFICATION_TYPE": "U", "NORAD_CAT_ID": 34845, "ELEMENT_SET_NO": 999, "REV_AT_EPOCH": 87567, "BSTAR": 0.00020260782, "MEAN_MOTION_DOT": 6.95e-06, "MEAN_MOTION_DDOT": 0}, "tle": {"line1": "1 34845U 93036ABP 25353.73046163  .00000695  00000+0  20261-3 0  9996", "line2": "2 34845  74.0244 135.3011 0022593 295.1391  64.7423 14.45872035875670"}}, "geometry": {"type": "Point", "coordinates": [97.33234932632239, -63.54727572887337]}}, {"type": "Feature", "properties": {"norad_id": 34846, "name": "COSMOS 2251 DEB", "group": "cosmos-2251-debris", "lat": -73.85067099171336, "lon": 164.4216523693703, "alt_km": 727.0257309828821, "timestamp": "2025-12-21T05:44:51.982659+00:00", "meta": {"OBJECT_NAME": "COSMOS 2251 DEB", "OBJECT_ID": "1993-036ABQ", "EPOCH": "2025-12-20T23:30:51.426432", "MEAN_MOTION": 14.47256713, "ECCENTRICITY": 0.0026222, "INCLINATION": 74.0305, "RA_OF_ASC_NODE": 246.3657, "ARG_OF_PERICENTER": 311.7318, "MEAN_ANOMALY": 48.1598, "EPHEMERIS_TYPE": 0, "CLASSIFICATION_TYPE": "U", "NORAD_CAT_ID": 34846, "ELEMENT_SET_NO": 999, "REV_AT_EPOCH": 87523, "BSTAR": 0.00048463161, "MEAN_MOTION_DOT": 1.752e-05, "MEAN_MOTION_DDOT": 0}, "tle": {"line1": "1 34846U 93036ABQ 25354.97976188  .00001752  00000+0  48463-3 0  9992", "line2": "2 34846  74.0305 246.3657 0026222 311.7318  48.1598 14.47256713875237"}}, "geometry": {"type": "Point", "coordinates": [164.4216523693703, -73.85067099171336]}}, {"type": "Feature", "properties": {"norad_id": 34852, "name": "COSMOS 2251 DEB", "group": "cosmos-2251-debris", "lat": 24.793977526889236, "lon": -105.05874019066172, "alt_km": 757.9426446883726, "timestamp": "2025-12-21T05:44:51.982669+00:00", "meta": {"OBJECT_NAME": "COSMOS 2251 DEB", "OBJECT_ID": "1993-036ABW", "EPOCH": "2025-12-19T23:33:13.329792", "MEAN_MOTION": 14.3701024, "ECCENTRICITY": 0.0016506, "INCLINATION": 74.0326, "RA_OF_ASC_NODE": 249.654, "ARG_OF_PERICENTER": 351.2067, "MEAN_ANOMALY": 8.8795, "EPHEMERIS_TYPE": 0, "CLASSIFICATION_TYPE": "U", "NORAD_CAT_ID": 34852, "ELEMENT_SET_NO": 999, "REV_AT_EPOCH": 87638, "BSTAR": 8.7686e-05, "MEAN_MOTION_DOT": 2.34e-06, "MEAN_MOTION_DDOT": 0}, "tle": {"line1": "1 34852U 93036ABW 25353.98140428  .00000234  00000+0  87686-4 0  9994", "line2": "2 34852  74.0326 249.6540 0016506 351.2067   8.8795 14.37010240876389"}}, "geometry": {"type": "Point", "coordinates": [-105.05874019066172, 24.793977526889236]}}, {"type": "Feature", "properties": {"norad_id": 34854, "name": "COSMOS 2251 DEB", "group": "cosmos-2251-debris", "lat": 57.99827295114482, "lon": 169.19726010480213, "alt_km": 679.456034153668, "timestamp": "2025-12-21T05:44:51.982679+00:00", "meta": {"OBJECT_NAME": "COSMOS 2251 DEB", "OBJECT_ID": "1993-036ABY", "EPOCH": "2025-12-20T16:27:30.286080", "MEAN_MOTION": 14.76695376, "ECCENTRICITY": 0.00660109, "INCLINATION": 74.029, "RA_OF_ASC_NODE": 143.0056, "ARG_OF_PERICENTER": 253.0888, "MEAN_ANOMALY": 106.3042, "EPHEMERIS_TYPE": 0, "CLASSIFICATION_TYPE": "U", "NORAD_CAT_ID": 34854, "ELEMENT_SET_NO": 999, "REV_AT_EPOCH": 71999, "BSTAR": 0.00047616561, "MEAN_MOTION_DOT": 3.419e-05, "MEAN_MOTION_DDOT": 0}, "tle": {"line1": "1 34854U 93036ABY 25354.68576720  .00003419  00000+0  47617-3 0  9999", "line2": "2 34854  74.0290 143.0056 0066010 253.0888 106.3042 14.76695376719999"}}, "geometry": {"type": "Point", "coordinates": [169.19726010480213, 57.99827295114482]}}, {"type": "Feature", "properties": {"norad_id": 34856, "name": "COSMOS 2251 DEB", "group": "cosmos-2251-debris", "lat": -36.94902540987705, "lon": 54.90177189883254, "alt_km": 563.2652371425884, "timestamp": "2025-12-21T05:44:51.982689+00:00", "meta": {"OBJECT_NAME": "COSMOS 2251 DEB", "OBJECT_ID": "1993-036ACA", "EPOCH": "2025-12-19T06:24:00.092736", "MEAN_MOTION": 15.06389388, "ECCENTRICITY": 0.0032064, "INCLINATION": 73.9981, "RA_OF_ASC_NODE": 71.4246, "ARG_OF_PERICENTER": 208.487, "MEAN_ANOMALY": 218.2947, "EPHEMERIS_TYPE": 0, "CLASSIFICATION_TYPE": "U", "NORAD_CAT_ID": 34856, "ELEMENT_SET_NO": 999, "REV_AT_EPOCH": 89210, "BSTAR": 0.001117, "MEAN_MOTION_DOT": 0.00016644, "MEAN_MOTION_DDOT": 0}, "tle": {"line1": "1 34856U 93036ACA 25353.26666774  .00016644  00000+0  11170-2 0  9991", "line2": "2 34856  73.9981  71.4246 0032064 208.4870 218.2947 15.06389388892107"}}, "geometry": {"type": "Point", "coordinates": [54.90177189883254, -36.94902540987705]}}, {"type": "Feature", "properties": {"norad_id": 34857, "name": "COSMOS 2251 DEB", "group": "cosmos-2251-debris", "lat": -34.38713967161497, "lon": 79.30439417698085, "alt_km": 718.4352084742541, "timestamp": "2025-12-21T05:44:51.982699+00:00", "meta": {"OBJECT_NAME": "COSMOS 2251 DEB", "OBJECT_ID": "1993-036ACB", "EPOCH": "2025-12-20T17:26:39.242976", "MEAN_MOTION": 14.58964843, "ECCENTRICITY": 0.00655314, "INCLINATION": 74.0163, "RA_OF_ASC_NODE": 91.5945, "ARG_OF_PERICENTER": 214.6118, "MEAN_ANOMALY": 297.3393, "EPHEMERIS_TYPE": 0, "CLASSIFICATION_TYPE": "U", "NORAD_CAT_ID": 34857, "ELEMENT_SET_NO": 999, "REV_AT_EPOCH": 88017, "BSTAR": 0.00067435995, "MEAN_MOTION_DOT": 3.23e-05, "MEAN_MOTION_DDOT": 0}, "tle": {"line1": "1 34857U 93036ACB 25354.72684309  .00003230  00000+0  67436-3 0  9992", "line2": "2 34857  74.0163  91.5945 0065531 214.6118 297.3393 14.58964843880178"}}, "geometry": {"type": "Point", "coordinates": [79.30439417698085, -34.38713967161497]}}, {"type": "Feature", "properties": {"norad_id": 34859, "name": "COSMOS 2251 DEB", "group": "cosmos-2251-debris", "lat": -21.6907966977591, "lon": 148.50066966145104, "alt_km": 524.5532689975989, "timestamp": "2025-12-21T05:44:51.982709+00:00", "meta": {"OBJECT_NAME": "COSMOS 2251 DEB", "OBJECT_ID": "1993-036ACD", "EPOCH": "2025-12-20T00:39:03.765024", "MEAN_MOTION": 15.15832734, "ECCENTRICITY": 0.00020914, "INCLINATION": 74.0278, "RA_OF_ASC_NODE": 324.4843, "ARG_OF_PERICENTER": 20.5726, "MEAN_ANOMALY": 48.6407, "EPHEMERIS_TYPE": 0, "CLASSIFICATION_TYPE": "U", "NORAD_CAT_ID": 34859, "ELEMENT_SET_NO": 999, "REV_AT_EPOCH": 88469, "BSTAR": 0.0027292363, "MEAN_MOTION_DOT": 0.00052535, "MEAN_MOTION_DDOT": 0}, "tle": {"line1": "1 34859U 93036ACD 25354.02712691  .00052535  00000+0  27292-2 0  9990", "line2": "2 34859  74.0278 324.4843 0002091  20.5726  48.6407 15.15832734884694"}}, "geometry": {"type": "Point", "coordinates": [148.50066966145104, -21.6907966977591]}}, {"type": "Feature", "properties": {"norad_id": 34861, "name": "COSMOS 2251 DEB", "group": "cosmos-2251-debris", "lat": 73.0760297002747, "lon": 103.85234175622564, "alt_km": 547.5342132723808, "timestamp": "2025-12-21T05:44:51.982719+00:00", "meta": {"OBJECT_NAME": "COSMOS 2251 DEB", "OBJECT_ID": "1993-036ACF", "EPOCH": "2025-12-20T20:34:18.636960", "MEAN_MOTION": 15.03018527, "ECCENTRICITY": 0.00079526, "INCLINATION": 74.0183, "RA_OF_ASC_NODE": 34.2632, "ARG_OF_PERICENTER": 23.9625, "MEAN_ANOMALY": 152.4909, "EPHEMERIS_TYPE": 0, "CLASSIFICATION_TYPE": "U", "NORAD_CAT_ID": 34861, "ELEMENT_SET_NO": 999, "REV_AT_EPOCH": 88214, "BSTAR": 0.0013048551, "MEAN_MOTION_DOT": 0.00017585, "MEAN_MOTION_DDOT": 0}, "tle": {"line1": "1 34861U 93036ACF 25354.85716015  .00017585  00000+0  13049-2 0  9999", "line2": "2 34861  74.0183  34.2632 0007952  23.9625 152.4909 15.03018527882142"}}, "geometry": {"type": "Point", "coordinates": [103.85234175622564, 73.0760297002747]}}, {"type": "Feature", "properties": {"norad_id": 34874, "name": "COSMOS 2251 DEB", "group": "cosmos-2251-debris", "lat": 15.443049485868796, "lon": -126.37837893989871, "alt_km": 766.3739583613033, "timestamp": "2025-12-21T05:44:51.982729+00:00", "meta": {"OBJECT_NAME": "COSMOS 2251 DEB", "OBJECT_ID": "1993-036ACM", "EPOCH": "2025-12-19T15:14:26.431296", "MEAN_MOTION": 14.36339936, "ECCENTRICITY": 0.0050622, "INCLINATION": 74.0394, "RA_OF_ASC_NODE": 61.1016, "ARG_OF_PERICENTER": 84.2082, "MEAN_ANOMALY": 65.9606, "EPHEMERIS_TYPE": 0, "CLASSIFICATION_TYPE": "U", "NORAD_CAT_ID": 34874, "ELEMENT_SET_NO": 999, "REV_AT_EPOCH": 87143, "BSTAR": 0.00053501, "MEAN_MOTION_DOT": 1.563e-05, "MEAN_MOTION_DDOT": 0}, "tle": {"line1": "1 34874U 93036ACM 25353.63502814  .00001563  00000+0  53501-3 0  9995", "line2": "2 34874  74.0394  61.1016 0050622  84.2082  65.9606 14.36339936871431"}}, "geometry": {"type": "Point", "coordinates": [-126.37837893989871, 15.443049485868796]}}]}